43249,IRIDIUM 144,2018,100.4,860.0,+,86.4,Active,1,LEO,USA,USA,Commercial/Government,Communications,Falcon,1 43249U 18030A   24121.45115040  .00000211  00000+0  68242-4 0  9993,2 43249  86.3955 255.4051 0002034  93.3900 266.7529 14.34217485318665,14.34217485,0.0002034,LEO
43250,IRIDIUM 149,2018,100.4,860.0,+,86.4,Active,1,LEO,USA,USA,Commercial/Government,Communications,Falcon,1 43250U 18030B   24121.45749384  .00000405  00000+0  13766-3 0  9994,2 43250  86.3955 255.3780 0002017  97.0740 263.0685 14.34214571318687,14.34214571,0.0002017,LEO
43251,IRIDIUM 157,2018,100.4,860.0,+,86.4,Active,1,LEO,USA,USA,Commercial/Government,Communications,Falcon,1 43251U 18030C   24121.61605714  .00000442  00000+0  15085-3 0  9998,2 43251  86.3954 255.3474 0002436  99.4107 260.7364 14.34220217318687,14.34220217,0.0002436,LEO
43252,IRIDIUM 140,2018,100.4,860.0,+,86.4,Active,1,LEO,USA,USA,Commercial/Government,Communications,Falcon,1 43252U 18030D   24121.56531609  .00000189  00000+0  60307-4 0  9990,2 43252  86.3955 255.3833 0001899  89.4569 270.6845 14.34217378318735,14.34217378,0.0001899,LEO
43253,IRIDIUM 145,2018,100.4,860.0,+,86.4,Active,1,LEO,USA,USA,Commercial/Government,Communications,Falcon,1 43253U 18030E   24121.62240011  .00000237  00000+0  77595-4 0  9993,2 43253  86.3954 255.3335 0001716  97.6364 262.5027 14.34215465318674,14.34215465,0.0001716,LEO
43254,IRIDIUM 146,2018,100.4,860.0,+,86.39,Active,1,LEO,USA,USA,Commercial/Government,Communications,Falcon,1 43254U 18030F   24121.60336506  .00000051  00000+0  11316-4 0  9990,2 43254  86.3954 255.3563 0001908  94.4142 265.7272 14.34213027318680,14.34213027,0.0001908,LEO
43255,IRIDIUM 148,2018,100.4,860.0,+,86.4,Active,1,LEO,USA,USA,Commercial/Government,Communications,Falcon,1 43255U 18030G   24121.43211950  .00000387  00000+0  13128-3 0  9991,2 43255  86.3957 255.4592 0002111 101.8318 258.3114 14.34219376318699,14.34219376,0.0002111,LEO
43256,IRIDIUM 142,2018,100.4,860.0,+,86.39,Active,1,LEO,USA,USA,Commercial/Government,Communications,Falcon,1 43256U 18030H   24121.60971529  .00000295  00000+0  98282-4 0  9999,2 43256  86.3953 255.3021 0001928  99.1297 261.0117 14.34216148318689,14.34216148,0.0001928,LEO
